NORAD_CAT_ID,OBJECT_NAME,OBJECT_TYPE,EPOCH,MEAN_MOTION,ECCENTRICITY,INCLINATION,RA_OF_ASC_NODE,ARG_OF_PERICENTER,MEAN_ANOMALY,BSTAR,MEAN_MOTION_DOT,MEAN_MOTION_DDOT,TLE_LINE0,TLE_LINE1,TLE_LINE2,SEMIMAJOR_AXIS,PERIOD,APOGEE,PERIGEE,DECAYED
51461.0,STARLINK-3181,PAYLOAD,2022-12-15 20:03:04,15.08881039,0.0002259,53.2149,175.7053,34.8269,325.2871,-0.00056464,-9.274e-05,0.0,0 STARLINK-3181,1 51461U 22010F   22349.83547077 -.00009274  00000-0 -56464-3 0  9995,2 51461  53.2149 175.7053 0002259  34.8269 325.2871 15.08881039 48701,6917.755,95.435,541.183,538.057,0.0
51461.0,STARLINK-3181,PAYLOAD,2022-12-15 23:13:51,15.08849268,0.000215,53.214,175.1105,47.4449,312.6724,-0.00021634,-3.731e-05,0.0,0 STARLINK-3181,1 51461U 22010F   22349.96795900 -.00003731  00000-0 -21634-3 0  9992,2 51461  53.2140 175.1105 0002150  47.4449 312.6724 15.08849268 49227,6917.852,95.437,541.2040000000002,538.23,0.0
51461.0,STARLINK-3181,PAYLOAD,2022-12-16 05:35:24,15.08840096,0.0002185,53.2141,173.9212,42.4065,317.7095,0.00020611,2.994e-05,0.0,0 STARLINK-3181,1 51461U 22010F   22350.23292605  .00002994  00000-0  20611-3 0  9990,2 51461  53.2141 173.9212 0002185  42.4065 317.7095 15.08840096 49261,6917.88,95.438,541.257,538.234,0.0
51461.0,STARLINK-3181,PAYLOAD,2022-12-16 13:32:20,15.08842851,0.0002194,53.214,172.4341,42.9494,317.1670000000001,0.00022033,3.2200000000000003e-05,0.0,0 STARLINK-3181,1 51461U 22010F   22350.56412503  .00003220  00000-0  22033-3 0  9990,2 51461  53.2140 172.4341 0002194  42.9494 317.1670 15.08842851 48812,6917.871999999999,95.437,541.254,538.219,0.0
51461.0,STARLINK-3181,PAYLOAD,2022-12-16 19:53:52,15.0884659,0.0002211,53.2139,171.2448,43.3035,316.8131,0.00024868,3.672e-05,0.0,0 STARLINK-3181,1 51461U 22010F   22350.82908360  .00003672  00000-0  24868-3 0  9999,2 51461  53.2139 171.2448 0002211  43.3035 316.8131 15.08846590 48857,6917.86,95.437,541.255,538.196,0.0
51461.0,STARLINK-3181,PAYLOAD,2022-12-17 11:47:44,15.08835072,0.0002268,53.2133,168.2708,44.4925,315.6249,-2.3026e-05,-6.55e-06,0.0,0 STARLINK-3181,1 51461U 22010F   22351.49148823 -.00000655  00000-0 -23026-4 0  9999,2 51461  53.2133 168.2708 0002268  44.4925 315.6249 15.08835072 48959,6917.895,95.438,541.3290000000002,538.191,0.0
51461.0,STARLINK-3181,PAYLOAD,2022-12-17 19:44:40,15.08838332,0.0002236,53.2141,166.7839,45.4314,314.6861,8.194299999999999e-06,-1.58e-06,0.0,0 STARLINK-3181,1 51461U 22010F   22351.82268842 -.00000158  00000-0  81943-5 0  9990,2 51461  53.2141 166.7839 0002236  45.4314 314.6861 15.08838332 49002,6917.885,95.438,541.297,538.2040000000002,0.0
51461.0,STARLINK-3181,PAYLOAD,2022-12-18 05:16:59,15.08838594,0.0002195,53.215,164.9996,45.2003,314.9167,9.7528e-05,1.264e-05,0.0,0 STARLINK-3181,1 51461U 22010F   22352.22012899  .00001264  00000-0  97528-4 0  9997,2 51461  53.2150 164.9996 0002195  45.2003 314.9167 15.08838594 49061,6917.885,95.438,541.268,538.231,0.0
51461.0,STARLINK-3181,PAYLOAD,2022-12-18 19:35:26,15.08846209,0.0002259,53.2151,162.3232,45.6249,314.4928,4.1907e-05,3.79e-06,0.0,0 STARLINK-3181,1 51461U 22010F   22352.81628350  .00000379  00000-0  41907-4 0  9993,2 51461  53.2151 162.3232 0002259  45.6249 314.4928 15.08846209 49156,6917.861,95.437,541.289,538.164,0.0
51461.0,STARLINK-3181,PAYLOAD,2022-12-18 22:46:13,15.08846815,0.0002269,53.2151,161.7285,45.4654,314.6524,4.3612e-05,4.06e-06,0.0,0 STARLINK-3181,1 51461U 22010F   22352.94876240  .00000406  00000-0  43612-4 0  9996,2 51461  53.2151 161.7285 0002269  45.4654 314.6524 15.08846815 49670,6917.86,95.437,541.294,538.155,0.0
51461.0,STARLINK-3181,PAYLOAD,2022-12-19 19:26:14,15.08836743,0.0002251,53.2152,157.8627,44.574,315.5433,4.3994e-05,4.12e-06,0.0,0 STARLINK-3181,1 51461U 22010F   22353.80988830  .00000412  00000-0  43994-4 0  9991,2 51461  53.2152 157.8627 0002251  44.5740 315.5433 15.08836743 49302,6917.89,95.438,541.313,538.198,0.0
51461.0,STARLINK-3181,PAYLOAD,2022-12-19 22:37:00,15.08837868,0.0002262,53.2152,157.268,44.3406,315.7767,4.855800000000001e-05,4.85e-06,0.0,0 STARLINK-3181,1 51461U 22010F   22353.94236735  .00000485  00000-0  48558-4 0  9997,2 51461  53.2152 157.2680 0002262  44.3406 315.7767 15.08837868 49822,6917.887,95.438,541.317,538.187,0.0
51461.0,STARLINK-3181,PAYLOAD,2022-12-20 11:20:05,15.08845226,0.0002269,53.2153,154.889,44.6275,315.4899,8.2834e-05,1.03e-05,0.0,0 STARLINK-3181,1 51461U 22010F   22354.47228129  .00001030  00000-0  82834-4 0  9996,2 51461  53.2153 154.8890 0002269  44.6275 315.4899 15.08845226 49902,6917.864000000001,95.437,541.299,538.16,0.0
51461.0,STARLINK-3181,PAYLOAD,2022-12-21 11:10:52,15.08839778,0.0002293,53.2153,150.4268,49.7903,310.3289,4.7679000000000005e-06,-2.12e-06,0.0,0 STARLINK-3181,1 51461U 22010F   22355.46588411 -.00000212  00000-0  47679-5 0  9990,2 51461  53.2153 150.4268 0002293  49.7903 310.3289 15.08839778 50054,6917.880999999999,95.438,541.332,538.16,0.0
51461.0,STARLINK-3181,PAYLOAD,2022-12-22 03:04:44,15.08831015,0.0002415,53.2155,147.4548,40.0722,320.0448,-1.6393e-05,-5.49e-06,0.0,0 STARLINK-3181,1 51461U 22010F   22356.12829221 -.00000549  00000-0 -16393-4 0  9993,2 51461  53.2155 147.4548 0002415  40.0722 320.0448 15.08831015 50154,6917.908,95.438,541.444,538.102,0.0
51461.0,STARLINK-3181,PAYLOAD,2022-12-22 11:01:39,15.0883571,0.000228,53.2155,145.9671,41.0513,319.065,-1.1259e-05,-4.68e-06,0.0,0 STARLINK-3181,1 51461U 22010F   22356.45948893 -.00000468  00000-0 -11259-4 0  9992,2 51461  53.2155 145.9671 0002280  41.0513 319.0650 15.08835710 49701,6917.894,95.438,541.336,538.181,0.0
51461.0,STARLINK-3181,PAYLOAD,2022-12-22 12:37:02,15.08840273,0.0002169,53.2151,145.6704,43.8456,316.2708,-1.3327e-05,-5e-06,0.0,0 STARLINK-3181,1 51461U 22010F   22356.52572675 -.00000500  00000-0 -13327-4 0  9996,2 51461  53.2151 145.6704 0002169  43.8456 316.2708 15.08840273 50214,6917.88,95.438,541.245,538.244,0.0
51461.0,STARLINK-3181,PAYLOAD,2022-12-22 17:23:12,15.08842218,0.0002172,53.2149,144.7786,43.9031,316.2134,6.6187e-06,-1.83e-06,0.0,0 STARLINK-3181,1 51461U 22010F   22356.72444472 -.00000183  00000-0  66187-5 0  9990,2 51461  53.2149 144.7786 0002172  43.9031 316.2134 15.08842218 49745,6917.874,95.437,541.241,538.236,0.0
51461.0,STARLINK-3181,PAYLOAD,2022-12-23 02:55:30,15.08847199,0.0002304,53.2153,142.9937,43.1288,316.9885,0.00012536,1.708e-05,0.0,0 STARLINK-3181,1 51461U 22010F   22357.12187733  .00001708  00000-0  12536-3 0  9999,2 51461  53.2153 142.9937 0002304  43.1288 316.9885 15.08847199 50308,6917.858,95.437,541.317,538.13,0.0
51461.0,STARLINK-3181,PAYLOAD,2022-12-23 09:17:02,15.08846181,0.0002348,53.2161,141.8057,45.2828,314.8355,8.6129e-05,1.083e-05,0.0,0 STARLINK-3181,1 51461U 22010F   22357.38683943  .00001083  00000-0  86129-4 0  9997,2 51461  53.2161 141.8057 0002348  45.2828 314.8355 15.08846181 49845,6917.861,95.437,541.351,538.102,0.0
51461.0,STARLINK-3181,PAYLOAD,2022-12-23 15:38:35,15.08841653,0.0002198,53.2168,140.6164,47.119,312.9987,3.5542e-05,2.77e-06,0.0,0 STARLINK-3181,1 51461U 22010F   22357.65180335  .00000277  00000-0  35542-4 0  9991,2 51461  53.2168 140.6164 0002198  47.1190 312.9987 15.08841653 49887,6917.875,95.437,541.261,538.22,0.0
51461.0,STARLINK-3181,PAYLOAD,2022-12-23 17:13:58,15.0884218,0.0002108,53.2161,140.3183,45.2726,314.8438,4.2629e-05,3.9e-06,0.0,0 STARLINK-3181,1 51461U 22010F   22357.71804219  .00000390  00000-0  42629-4 0  9992,2 51461  53.2161 140.3183 0002108  45.2726 314.8438 15.08842180 50399,6917.874,95.437,541.197,538.28,0.0
51461.0,STARLINK-3181,PAYLOAD,2022-12-24 02:46:18,15.08833302,0.0002248,53.2153,138.5336,38.3563,321.7588,6.1e-05,6.82e-06,0.0,0 STARLINK-3181,1 51461U 22010F   22358.11548761  .00000682  00000-0  61000-4 0  9992,2 51461  53.2153 138.5336 0002248  38.3563 321.7588 15.08833302 50452,6917.901,95.438,541.321,538.211,0.0
51461.0,STARLINK-3181,PAYLOAD,2022-12-24 09:07:50,15.08836701,0.0002173,53.2151,137.3443,38.6053,321.5094,5.6664e-05,6.14e-06,0.0,0 STARLINK-3181,1 51461U 22010F   22358.38044595  .00000614  00000-0  56664-4 0  9992,2 51461  53.2151 137.3443 0002173  38.6053 321.5094 15.08836701 49993,6917.89,95.438,541.259,538.252,0.0
51461.0,STARLINK-3181,PAYLOAD,2022-12-24 18:40:08,15.08843242,0.0002231,53.215,135.5601,38.9551,321.1601,5.8238e-05,6.39e-06,0.0,0 STARLINK-3181,1 51461U 22010F   22358.77788156  .00000639  00000-0  58238-4 0  9999,2 51461  53.2150 135.5601 0002231  38.9551 321.1601 15.08843242 50551,6917.87,95.437,541.279,538.192,0.0
51461.0,STARLINK-3181,PAYLOAD,2022-12-25 02:37:03,15.08876988,0.000207,53.215,134.07299999999998,39.7,320.4144,-0.00037429,-6.246e-05,0.0,0 STARLINK-3181,1 51461U 22010F   22359.10906921 -.00006246  00000-0 -37429-3 0  9999,2 51461  53.2150 134.0730 0002070  39.7000 320.4144 15.08876988 50600,6917.767,95.435,541.064,538.2,0.0
51461.0,STARLINK-3181,PAYLOAD,2022-12-25 08:58:37,15.08825913,0.0002028,53.215,132.8841,35.2071,324.9055,0.00026614,3.948e-05,0.0,0 STARLINK-3181,1 51461U 22010F   22359.37404364  .00003948  00000-0  26614-3 0  9990,2 51461  53.2150 132.8841 0002028  35.2071 324.9055 15.08825913 50647,6917.9230000000025,95.438,541.191,538.385,0.0
51461.0,STARLINK-3181,PAYLOAD,2022-12-25 18:30:56,15.08839776,0.0002252,53.215,131.0993,37.9231,322.192,1.3759000000000008e-05,-6.9e-07,0.0,0 STARLINK-3181,1 51461U 22010F   22359.77148267 -.00000069  00000-0  13759-4 0  9990,2 51461  53.2150 131.0993 0002252  37.9231 322.1920 15.08839776 50207,6917.880999999999,95.438,541.304,538.188,0.0
51461.0,STARLINK-3181,PAYLOAD,2022-12-26 02:27:52,15.08831506,0.000194,53.2143,129.6121,38.1382,321.9747,-6.6578e-05,-1.347e-05,0.0,0 STARLINK-3181,1 51461U 22010F   22360.10269011 -.00001347  00000-0 -66578-4 0  9998,2 51461  53.2143 129.6121 0001940  38.1382 321.9747 15.08831506 50250,6917.906,95.438,541.113,538.429,0.0
